DataType=double
version=3
OpenSimVersion=4.6-2026-04-25-d8b9379
endheader
time	TRIlong	TRIlat	TRImed	BIClong	BICshort	BRA
0	0.05	0.05	0.05	0.05	0.05	0.05
0.02	0.04257006900800731	0.04257006900800731	0.04257006900800731	0.6656577353882216	0.6656577353882216	0.2787781608199881
0.04	0.03706217144688117	0.03706217144688117	0.03706217144688117	0.7619476772791814	0.7619476772791814	0.2974901136681335
0.06	0.0329446827069294	0.0329446827069294	0.0329446827069294	0.7885380893935954	0.7885380893935954	0.2996953243575669
0.08	0.02984725412236232	0.02984725412236232	0.02984725412236232	0.796490259101305	0.796490259101305	0.299962902032462
0.1	0.02750617284951483	0.02750617284951483	0.02750617284951483	0.7989200359942595	0.7989200359942595	0.2999954811946137
0.12	0.02573044086224032	0.02573044086224032	0.02573044086224032	0.7996671961922337	0.7996671961922337	0.2999994495513737
0.14	0.02437989201172202	0.02437989201172202	0.02437989201172202	0.7998973957403461	0.7998973957403461	0.2999999329479072
0.16	0.02335061036673189	0.02335061036673189	0.02335061036673189	0.7999683624010783	0.7999683624010783	0.2999999918321418
0.18	0.02256494595457933	0.02256494595457933	0.02256494595457933	0.7999902442548245	0.7999902442548245	0.2999999990050436
0.2	0.02196452191790219	0.02196452191790219	0.02196452191790219	0.7999969916859082	0.7999969916859082	0.2999999998788008
0.22	0.02150524460400646	0.02150524460400646	0.02150524460400646	0.7999990723467417	0.7999990723467417	0.2999999999852369
0.24	0.02115368837238818	0.02115368837238818	0.02115368837238818	0.7999997139513501	0.7999997139513501	0.299999999998202
0.26	0.02088444440091333	0.02088444440091333	0.02088444440091333	0.7999999117888971	0.7999999117888971	0.2999999999997809
0.28	0.02067815583377074	0.02067815583377074	0.02067815583377074	0.7999999727987697	0.7999999727987697	0.2999999999999734
0.3	0.02052005282914897	0.02052005282914897	0.02052005282914897	0.7999999916120878	0.7999999916120878	0.2999999999999967
0.32	0.02039885096357945	0.02039885096357945	0.02039885096357945	0.7999999974134602	0.7999999974134602	0.2999999999999992
0.34	0.02030592044160119	0.02030592044160119	0.02030592044160119	0.7999999992024014	0.7999999992024014	0.2999999999999994
0.36	0.02023465668654902	0.02023465668654902	0.02023465668654902	0.7999999997540485	0.7999999997540485	0.2999999999999994
0.38	0.02018000217709351	0.02018000217709351	0.02018000217709351	0.7999999999241572	0.7999999999241572	0.2999999999999997
0.4	0.02013808236545937	0.02013808236545937	0.02013808236545937	0.7999999999766129	0.7999999999766129	0.2999999999999999
0.42	0.02010592797549529	0.02010592797549529	0.02010592797549529	0.7999999999927881	0.7999999999927881	0.2999999999999999
0.44	0.02008126290166876	0.02008126290166876	0.02008126290166876	0.7999999999977762	0.7999999999977762	0.2999999999999999
0.46	0.02006234204387049	0.02006234204387049	0.02006234204387049	0.7999999999993141	0.7999999999993141	0.2999999999999999
0.48	0.02004782722252983	0.02004782722252983	0.02004782722252983	0.7999999999997884	0.7999999999997884	0.2999999999999999
0.5	0.02003669217348783	0.02003669217348783	0.02003669217348783	0.7999999999999348	0.7999999999999348	0.2999999999999999
0.52	0.02002814977330343	0.02002814977330343	0.02002814977330343	0.7999999999999798	0.7999999999999798	0.2999999999999999
0.54	0.02002159627302812	0.02002159627302812	0.02002159627302812	0.7999999999999936	0.7999999999999936	0.2999999999999999
0.5600000000000001	0.02001656855342256	0.02001656855342256	0.02001656855342256	0.7999999999999979	0.7999999999999979	0.2999999999999999
0.58	0.02001271135383349	0.02001271135383349	0.02001271135383349	0.7999999999999993	0.7999999999999993	0.2999999999999999
0.6	0.02000975214479214	0.02000975214479214	0.02000975214479214	0.7999999999999996	0.7999999999999996	0.2999999999999999
0.62	0.02000748185543738	0.02000748185543738	0.02000748185543738	0.7999999999999996	0.7999999999999996	0.2999999999999999
0.64	0.02000574009571317	0.02000574009571317	0.02000574009571317	0.7999999999999996	0.7999999999999996	0.2999999999999999
0.66	0.02000440381892992	0.02000440381892992	0.02000440381892992	0.7999999999999996	0.7999999999999996	0.2999999999999999
0.68	0.0200033786262827	0.0200033786262827	0.0200033786262827	0.7999999999999996	0.7999999999999996	0.2999999999999999
0.7000000000000001	0.02000259209641681	0.02000259209641681	0.02000259209641681	0.7999999999999996	0.7999999999999996	0.2999999999999999
0.72	0.02000198866839762	0.02000198866839762	0.02000198866839762	0.7999999999999996	0.7999999999999996	0.2999999999999999
0.74	0.02000152571622816	0.02000152571622816	0.02000152571622816	0.7999999999999996	0.7999999999999996	0.2999999999999999
0.76	0.0200011705373913	0.0200011705373913	0.0200011705373913	0.7999999999999996	0.7999999999999996	0.2999999999999999
0.78	0.02000089804255947	0.02000089804255947	0.02000089804255947	0.7999999999999998	0.7999999999999998	0.2999999999999999
0.8	0.02000068898318735	0.02000068898318735	0.02000068898318735	0.7999999999999998	0.7999999999999998	0.2999999999999999
0.8200000000000001	0.02000052859176087	0.02000052859176087	0.02000052859176087	0.7999999999999998	0.7999999999999998	0.2999999999999999
0.84	0.02000040553860277	0.02000040553860277	0.02000040553860277	0.7999999999999998	0.7999999999999998	0.2999999999999999
0.86	0.0200003111315459	0.0200003111315459	0.0200003111315459	0.7999999999999998	0.7999999999999998	0.2999999999999999
0.88	0.02000023870192427	0.02000023870192427	0.02000023870192427	0.7999999999999998	0.7999999999999998	0.2999999999999999
0.9	0.0200001831335078	0.0200001831335078	0.0200001831335078	0.7999999999999998	0.7999999999999998	0.2999999999999999
0.92	0.02000014050109987	0.02000014050109987	0.02000014050109987	0.7999999999999998	0.7999999999999998	0.2999999999999999
0.9400000000000001	0.02000010779326977	0.02000010779326977	0.02000010779326977	0.7999999999999998	0.7999999999999998	0.2999999999999999
0.96	0.02000008269963202	0.02000008269963202	0.02000008269963202	0.7999999999999998	0.7999999999999998	0.2999999999999999
0.98	0.02000006344764626	0.02000006344764626	0.02000006344764626	0.7999999999999998	0.7999999999999998	0.2999999999999999
1	0.02000004867740983	0.02000004867740983	0.02000004867740983	0.7999999999999998	0.7999999999999998	0.2999999999999999
