DataType=double
version=3
OpenSimVersion=4.6-2026-04-25-d8b9379
endheader
time	r_shoulder_elev	r_elbow_flex
0	0	0.1
0.02	-0.00685503522336781	0.122775097913753
0.04	-0.04222496954691735	0.2435971924466456
0.06	-0.1084342867434571	0.4756555454307516
0.08	-0.1905196617635727	0.7778983622320615
0.1	-0.2677081933264203	1.094042879086769
0.12	-0.3285408528636267	1.397043934163696
0.14	-0.3683206427414893	1.680485663121166
0.16	-0.3847786748559787	1.945754243471958
0.18	-0.3762229119700495	2.196227660466914
0.2	-0.3417022040463086	2.435112919146227
0.22	-0.2820349825952702	2.668370472264721
0.24	-0.1968963358196141	2.914037513402577
0.26	-0.08777946391330994	3.154875600507881
0.28	0.03702480866634991	3.332270319368959
0.3	0.1651492338002462	3.401110741069264
0.32	0.2819444461427422	3.380305006422376
0.34	0.3728984771647382	3.311614545183812
0.36	0.4273739194711413	3.216902636787174
0.38	0.4380756108669399	3.110208395047959
0.4	0.404462453058216	3.004725609632082
0.42	0.3334618582902703	2.912983671217823
0.44	0.2369314642931335	2.846899853308256
0.46	0.1262519122071501	2.815792751904018
0.48	0.01093253858377991	2.820955632204678
0.5	-0.09860281752325493	2.85476962620187
0.52	-0.19115290776843	2.905011600245583
0.54	-0.2569642606812587	2.956794145233839
0.5600000000000001	-0.2901632362343977	2.995879984464762
0.58	-0.2908143288358832	3.013645379087032
0.6	-0.2646247507784237	3.010604576536314
0.62	-0.2189667981174584	2.993396744002314
0.64	-0.1601113103798063	2.969315880417603
0.66	-0.093678845409938	2.944955196697923
0.68	-0.02538238305295567	2.92615530602634
0.7000000000000001	0.03947859435100597	2.917261542463162
0.72	0.09569247476987784	2.920638237538419
0.74	0.1389437098947426	2.93613247964743
0.76	0.1662269688842792	2.961173243064734
0.78	0.176141478482188	2.990606987820893
0.8	0.1696559466131298	3.017270694835457
0.8200000000000001	0.1494952867668564	3.0338950897571
0.84	0.1190803656359324	3.035811684858376
0.86	0.08197529730171335	3.022530807650184
0.88	0.04191732052444804	2.997256531661668
0.9	0.002680734222403112	2.965505474972272
0.92	-0.03213678978502027	2.933980840777477
0.9400000000000001	-0.05953430847263543	2.909259349318995
0.96	-0.07759692709169909	2.89624286512902
0.98	-0.08572246065204456	2.896759628104765
1	-0.08442712279693047	2.909349571605088
