Inverse Dynamics Generalized Forces
version=1
nRows=101
nColumns=3
inDegrees=no
endheader
time	r_shoulder_elev_moment	r_elbow_flex_moment
      0.00000000	    233.16241683	    107.96090677
      0.01000000	    233.26019222	    107.98076323
      0.02000000	    233.55300525	    108.03914784
      0.03000000	    234.04207308	    108.13382601
      0.04000000	    234.72863574	    108.26079674
      0.05000000	    235.61459052	    108.41472654
      0.06000000	    236.70220673	    108.58900169
      0.07000000	    237.99416324	    108.77597607
      0.08000000	    239.49343485	    108.96718547
      0.09000000	    241.20323195	    109.15361667
      0.10000000	    243.12690880	    109.32598240
      0.11000000	    245.26788023	    109.47501138
      0.12000000	    247.62953309	    109.59173691
      0.13000000	    250.21514155	    109.66777843
      0.14000000	    253.02778534	    109.69560618
      0.15000000	    256.07027400	    109.66878215
      0.16000000	    259.34507790	    109.58217072
      0.17000000	    262.85426742	    109.43211416
      0.18000000	    266.59946072	    109.21657008
      0.19000000	    270.58178058	    108.93520912
      0.20000000	    274.80182005	    108.58947321
      0.21000000	    279.25961675	    108.18259583
      0.22000000	    283.95463509	    107.71958713
      0.23000000	    288.88575581	    107.20718719
      0.24000000	    294.05127186	    106.65379177
      0.25000000	    299.44888978	    106.06935457
      0.26000000	    305.07573577	    105.46527031
      0.27000000	    310.92836536	    104.85424265
      0.28000000	    317.00277620	    104.25014054
      0.29000000	    323.29442304	    103.66784601
      0.30000000	    329.79823446	    103.12309629
      0.31000000	    336.50863081	    102.63232216
      0.32000000	    343.41954303	    102.21248454
      0.33000000	    350.52443198	    101.88091038
      0.34000000	    357.81630827	    101.65512922
      0.35000000	    365.28775223	    101.55271108
      0.36000000	    372.93093416	    101.59110644
      0.37000000	    380.73763476	    101.78748890
      0.38000000	    388.69926573	    102.15860121
      0.39000000	    396.80689059	    102.72060515
      0.40000000	    405.05124588	    103.48893591
      0.41000000	    413.42276259	    104.47816182
      0.42000000	    421.91158809	    105.70184992
      0.43000000	    430.50760845	    107.17243842
      0.44000000	    439.20047128	    108.90111689
      0.45000000	    447.97960906	    110.89771495
      0.46000000	    456.83426307	    113.17060059
      0.47000000	    465.75350774	    115.72658896
      0.48000000	    474.72627557	    118.57086259
      0.49000000	    483.74138255	    121.70690392
      0.50000000	    492.78755389	    125.13644099
      0.51000000	    501.85345019	    128.85940693
      0.52000000	    510.92769382	    132.87391404
      0.53000000	    519.99889554	    137.17624281
      0.54000000	    529.05568111	    141.76084625
      0.55000000	    538.08671788	    146.62036988
      0.56000000	    547.08074125	    151.74568713
      0.57000000	    556.02658080	    157.12595031
      0.58000000	    564.91318598	    162.74865647
      0.59000000	    573.72965127	    168.59972799
      0.60000000	    582.46524063	    174.66360679
      0.61000000	    591.10941106	    180.92336160
      0.62000000	    599.65183529	    187.36080701
      0.63000000	    608.08242325	    193.95663304
      0.64000000	    616.39134240	    200.69054405
      0.65000000	    624.56903665	    207.54140514
      0.66000000	    632.60624383	    214.48739463
      0.67000000	    640.49401159	    221.50616077
      0.68000000	    648.22371165	    228.57498086
      0.69000000	    655.78705226	    235.67092083
      0.70000000	    663.17824728	    244.02736874
      0.71000000	    670.42346814	    255.32946096
      0.72000000	    677.52454307	    266.56913613
      0.73000000	    684.47120380	    277.71312515
      0.74000000	    691.25345053	    288.72878460
      0.75000000	    697.86157216	    299.70486642
      0.76000000	    704.28616459	    310.59515153
      0.77000000	    710.51814712	    321.40252308
      0.78000000	    716.54877701	    332.17146248
      0.79000000	    722.36966205	    342.97923132
      0.80000000	    727.97277135	    353.94516904
      0.81000000	    733.35044429	    365.03953266
      0.82000000	    738.49539770	    375.74231674
      0.83000000	    743.39650891	    385.96292629
      0.84000000	    747.91888280	    394.83095917
      0.85000000	    752.07092951	    402.45220836
      0.86000000	    755.75035793	    408.81980696
      0.87000000	    758.88450741	    413.91275469
      0.88000000	    761.59706311	    418.08950937
      0.89000000	    763.96921686	    421.58189129
      0.90000000	    766.05453941	    424.54145878
      0.91000000	    767.88807782	    427.06462285
      0.92000000	    769.48297583	    429.14831991
      0.93000000	    770.87041426	    430.93637128
      0.94000000	    772.06024497	    432.45300688
      0.95000000	    773.05920204	    433.71528222
      0.96000000	    773.87188369	    434.73521384
      0.97000000	    774.50138577	    435.52118949
      0.98000000	    774.94978592	    436.07897260
      0.99000000	    775.21832039	    436.41222272
      1.00000000	    775.30788109	    436.52320591
