inDegrees=no
DataType=double
version=3
OpenSimVersion=4.6-2026-04-25-d8b9379
endheader
time	r_shoulder_elev	r_elbow_flex
0	0	0
0.01	0	0.0003875465825019099
0.02	0	0.001549803868319914
0.03	0	0.003485624849833836
0.04	0	0.006193099105449389
0.05	0	0.009669554684953717
0.06	0	0.01391156074640737
0.07000000000000001	0	0.01891493094197129
0.08	0	0.02467472754932672
0.09	0	0.03118526634461071
0.1	0	0.03844012221205936
0.11	0	0.04643213548482073
0.12	0	0.0551534190106821
0.13	0	0.06459536593573688
0.14	0	0.07474865819831002
0.15	0	0.08560327572476006
0.16	0	0.09714850631808247
0.17	0	0.1093729562295541
0.18	0	0.1222645614029881
0.19	0	0.1358105993805006
0.2	0	0.1499977018580408
0.21	0	0.164811867878293
0.22	0	0.1802384776479312
0.23	0	0.1962623069655899
0.24	0	0.2128675422463129
0.25	0	0.2300377961276525
0.26	0	0.2477561236420178
0.27	0	0.2660050389393115
0.28	0	0.2847665325433535
0.29	0	0.3040220891250592
0.3	0	0.3237527057748341
0.31	0	0.343938910756151
0.32	0	0.3645607827218034
0.33	0	0.3855979703738698
0.34	0	0.4070297125479883
0.35	0	0.4288348587021186
0.36	0	0.4509918897895736
0.37	0	0.473478939495721
0.38	0	0.4962738158173949
0.39	0	0.519354022963725
0.4	0	0.542696783556765
0.41	0	0.5662790611100149
0.42	0	0.5900775827626527
0.43	0	0.6140688622470374
0.44	0	0.6382292230668206
0.45	0	0.6625348218627886
0.46	0	0.6869616719433803
0.47	0	0.7114856669566555
0.48	0	0.7360826046803538
0.49	0	0.7607282109065665
0.5	0	0.7853981633974482
0.51	0	0.8100681158883299
0.52	0	0.8347137221145428
0.53	0	0.8593106598382412
0.54	0	0.8838346548515162
0.55	0	0.908261504932108
0.5600000000000001	0	0.9325671037280761
0.5700000000000001	0	0.956727464547859
0.58	0	0.9807187440322437
0.59	0	1.004517265684882
0.6	0	1.028099543238132
0.61	0	1.051442303831171
0.62	0	1.074522510977501
0.63	0	1.097317387299176
0.64	0	1.119804437005323
0.65	0	1.141961468092778
0.66	0	1.163766614246909
0.67	0	1.185198356421027
0.68	0	1.206235544073094
0.6900000000000001	0	1.226857416038746
0.7000000000000001	0	1.247043621020062
0.71	0	1.266774237669837
0.72	0	1.286029794251543
0.73	0	1.304791287855585
0.74	0	1.323040203152879
0.75	0	1.340758530667244
0.76	0	1.357928784548583
0.77	0	1.374534019829307
0.78	0	1.390557849146965
0.79	0	1.405984458916604
0.8	0	1.420798624936856
0.8100000000000001	0	1.434985727414396
0.8200000000000001	0	1.448531765391909
0.8300000000000001	0	1.461423370565343
0.84	0	1.473647820476814
0.85	0	1.485193051070137
0.86	0	1.496047668596587
0.87	0	1.50620096085916
0.88	0	1.515642907784214
0.89	0	1.524364191310076
0.9	0	1.532356204582837
0.91	0	1.539611060450286
0.92	0	1.54612159924557
0.93	0	1.551881395852925
0.9400000000000001	0	1.556884766048489
0.9500000000000001	0	1.561126772109943
0.96	0	1.564603227689447
0.97	0	1.567310701945063
0.98	0	1.569246522926577
0.99	0	1.570408780212395
1	0	1.570796326794897
